{
  "links" : {
    "next" : "https://api.nasa.gov/neo/rest/v1/feed?start_date=2000-09-09&end_date=2000-09-09&detailed=true&api_key=t0TVs3DtDT2H8Oy2Zy8m2eVrNsAVKAexjcZXUckd",
    "prev" : "https://api.nasa.gov/neo/rest/v1/feed?start_date=2000-09-07&end_date=2000-09-07&detailed=true&api_key=t0TVs3DtDT2H8Oy2Zy8m2eVrNsAVKAexjcZXUckd",
    "self" : "https://api.nasa.gov/neo/rest/v1/feed?start_date=2000-09-08&end_date=2000-09-08&detailed=true&api_key=t0TVs3DtDT2H8Oy2Zy8m2eVrNsAVKAexjcZXUckd"
  },
  "element_count" : 2,
  "near_earth_objects" : {
    "2000-09-08" : [ {
      "links" : {
        "self" : "https://api.nasa.gov/neo/rest/v1/neo/3709252?api_key=t0TVs3DtDT2H8Oy2Zy8m2eVrNsAVKAexjcZXUckd"
      },
      "neo_reference_id" : "3709252",
      "name" : "(2015 BE513)",
      "nasa_jpl_url" : "http://ssd.jpl.nasa.gov/sbdb.cgi?sstr=3709252",
      "absolute_magnitude_h" : 22.1,
      "estimated_diameter" : {
        "kilometers" : {
          "estimated_diameter_min" : 0.1010543415,
          "estimated_diameter_max" : 0.2259643771
        },
        "meters" : {
          "estimated_diameter_min" : 101.054341542,
          "estimated_diameter_max" : 225.9643771094
        },
        "miles" : {
          "estimated_diameter_min" : 0.0627922373,
          "estimated_diameter_max" : 0.140407711
        },
        "feet" : {
          "estimated_diameter_min" : 331.5431259047,
          "estimated_diameter_max" : 741.3529669956
        }
      },
      "is_potentially_hazardous_asteroid" : false,
      "close_approach_data" : [ {
        "close_approach_date" : "2000-09-08",
        "epoch_date_close_approach" : 968396400000,
        "relative_velocity" : {
          "kilometers_per_second" : "16.6694375812",
          "kilometers_per_hour" : "60009.9752924791",
          "miles_per_hour" : "37287.8649254852"
        },
        "miss_distance" : {
          "astronomical" : "0.4175182659",
          "lunar" : "162.4145965576",
          "kilometers" : "62459844",
          "miles" : "38810748"
        },
        "orbiting_body" : "Earth"
      } ],
      "orbital_data" : {
        "orbit_id" : "19",
        "orbit_determination_date" : "2017-04-06 08:35:58",
        "orbit_uncertainty" : "2",
        "minimum_orbit_intersection" : ".101498",
        "jupiter_tisserand_invariant" : "6.202",
        "epoch_osculation" : "2458000.5",
        "eccentricity" : ".386169991861794",
        "semi_major_axis" : ".9610334760452351",
        "inclination" : "6.742002683065411",
        "ascending_node_longitude" : "347.7302611771173",
        "orbital_period" : "344.1170575289283",
        "perihelion_distance" : ".5899111864219351",
        "perihelion_argument" : "358.644424536355",
        "aphelion_distance" : "1.332155765668535",
        "perihelion_time" : "2457989.179027477218",
        "mean_anomaly" : "11.84349923676467",
        "mean_motion" : "1.046155638389813",
        "equinox" : "J2000"
      }
    }, {
      "links" : {
        "self" : "https://api.nasa.gov/neo/rest/v1/neo/3752517?api_key=t0TVs3DtDT2H8Oy2Zy8m2eVrNsAVKAexjcZXUckd"
      },
      "neo_reference_id" : "3752517",
      "name" : "(2016 HS6)",
      "nasa_jpl_url" : "http://ssd.jpl.nasa.gov/sbdb.cgi?sstr=3752517",
      "absolute_magnitude_h" : 20.8,
      "estimated_diameter" : {
        "kilometers" : {
          "estimated_diameter_min" : 0.1838886721,
          "estimated_diameter_max" : 0.411187571
        },
        "meters" : {
          "estimated_diameter_min" : 183.8886720703,
          "estimated_diameter_max" : 411.1875710413
        },
        "miles" : {
          "estimated_diameter_min" : 0.1142630881,
          "estimated_diameter_max" : 0.2555000322
        },
        "feet" : {
          "estimated_diameter_min" : 603.309310875,
          "estimated_diameter_max" : 1349.040630575
        }
      },
      "is_potentially_hazardous_asteroid" : false,
      "close_approach_data" : [ {
        "close_approach_date" : "2000-09-08",
        "epoch_date_close_approach" : 968396400000,
        "relative_velocity" : {
          "kilometers_per_second" : "18.9882174586",
          "kilometers_per_hour" : "68357.5828510147",
          "miles_per_hour" : "42474.7436331763"
        },
        "miss_distance" : {
          "astronomical" : "0.3838765819",
          "lunar" : "149.3279876709",
          "kilometers" : "57427120",
          "miles" : "35683560"
        },
        "orbiting_body" : "Earth"
      } ],
      "orbital_data" : {
        "orbit_id" : "12",
        "orbit_determination_date" : "2017-04-06 08:26:19",
        "orbit_uncertainty" : "5",
        "minimum_orbit_intersection" : ".256543",
        "jupiter_tisserand_invariant" : "4.869",
        "epoch_osculation" : "2458000.5",
        "eccentricity" : ".4798839241345654",
        "semi_major_axis" : "1.281898886035673",
        "inclination" : "21.55770057328936",
        "ascending_node_longitude" : "200.1805954199016",
        "orbital_period" : "530.1259723864684",
        "perihelion_distance" : ".6667362182611465",
        "perihelion_argument" : "150.9807823930107",
        "aphelion_distance" : "1.8970615538102",
        "perihelion_time" : "2458156.733966626077",
        "mean_anomaly" : "253.90403240914",
        "mean_motion" : ".6790838758180207",
        "equinox" : "J2000"
      }
    } ]
  }
}